OBJECT_NAME,OBJECT_ID,EPOCH,MEAN_MOTION,ECCENTRICITY,INCLINATION,RA_OF_ASC_NODE,ARG_OF_PERICENTER,MEAN_ANOMALY,EPHEMERIS_TYPE,CLASSIFICATION_TYPE,NORAD_CAT_ID,ELEMENT_SET_NO,REV_AT_EPOCH,BSTAR,MEAN_MOTION_DOT,MEAN_MOTION_DDOT
AT&T T-16,2019-034A,2026-05-26T04:55:46.174656,1.00269300,.00005715,0.0454,105.9649,136.3819,334.5188,0,U,44333,999,2541,0,-.113E-5,0
EUTELSAT 7C,2019-034B,2026-05-26T03:43:55.646688,1.00272545,.00033203,0.0752,176.5863,227.9996,262.1353,0,U,44334,999,661,0,.5E-6,0
BEIDOU-3 IGSO-2,2019-035A,2026-05-19T15:14:57.732288,1.00275192,.00395304,55.2397,159.1126,216.4700,210.4277,0,U,44337,999,2538,0,-.79E-6,0
PROX-1,2019-036A,2026-05-25T13:27:02.386656,14.89995350,.00065188,23.9950,265.3322,125.4682,234.6426,0,U,44339,999,37009,.12882749E-2,.13022E-3,0
NPSAT1,2019-036B,2026-05-26T06:11:17.212704,14.74342585,.00076772,24.0005,0.5576,323.9434,36.0544,0,U,44340,999,36925,.84469439E-3,.5969E-4,0
OTB,2019-036C,2026-05-26T04:54:43.605504,14.57164106,.00112184,23.9956,119.5732,122.6988,237.4587,0,U,44341,999,36816,.23625229E-3,.1305E-4,0
FORMOSAT 7-3,2019-036E,2026-05-25T21:51:21.933792,15.09606195,.00010289,24.0004,331.8407,37.0814,322.9761,0,U,44343,999,37987,.25721417E-3,.459E-4,0
DSX,2019-036F,2026-05-25T02:10:59.575584,4.54375144,.19675884,42.3288,359.1230,5.9564,356.1242,0,U,44344,999,11474,0,-.57E-6,0
FORMOSAT 7-1,2019-036L,2026-05-26T04:13:23.680128,14.96398402,.00003883,23.9963,180.7763,281.2541,78.7916,0,U,44349,999,38135,.17472429E-3,.233E-4,0
FORMOSAT 7-4,2019-036M,2026-05-25T09:33:23.360256,14.96391735,.0000746,23.9978,248.1263,291.5263,68.5158,0,U,44350,999,38065,.17253814E-3,.2305E-4,0
FORMOSAT 7-2,2019-036N,2026-05-26T02:05:50.191008,14.96393141,.00003644,23.9991,297.7950,320.3637,39.6837,0,U,44351,999,38027,.18884575E-3,.2494E-4,0
FORMOSAT 7-6,2019-036Q,2026-05-26T05:17:40.646976,14.96400092,.00010806,23.9968,117.7082,186.7809,173.2677,0,U,44353,999,37852,.18941738E-3,.2501E-4,0
FORMOSAT 7-5,2019-036V,2026-05-26T01:33:00.697824,14.96400263,.0000115,23.9992,57.5104,280.8931,79.1556,0,U,44358,999,37903,.17837326E-3,.2373E-4,0
METEOR-M2 2,2019-038A,2026-05-26T06:10:54.588000,14.24358938,.0002403,98.9140,133.2209,82.2737,277.8714,0,U,44387,999,35817,.54426092E-4,.8E-6,0
ICEYE-X4,2019-038D,2026-05-26T08:09:49.117248,15.28722257,.001378,97.8780,177.9750,29.0373,331.1629,0,U,44390,999,37846,.48605508E-3,.13538E-3,0
MOMENTUS-X1,2019-038Y,2026-05-26T01:30:07.442496,15.64562981,.00097105,97.6777,189.4549,99.3077,260.9280,0,U,44408,999,38309,.4738485E-3,.45824E-3,0
COSMOS 2538,2019-039D,2026-05-26T06:13:19.056576,15.20434165,.00438105,97.5881,225.5074,120.3200,240.2379,0,U,44424,999,37657,.31359836E-3,.6946E-4,0
YAOGAN-30 06A,2019-045A,2026-05-26T05:56:42.454176,15.02524184,.00026499,34.9926,103.8018,87.7951,272.3060,0,U,44449,999,37331,.16904521E-3,.2263E-4,0
YAOGAN-30 06B,2019-045B,2026-05-26T07:00:20.138400,15.02566889,.0009418,34.9917,103.0682,244.8405,115.1326,0,U,44450,999,37336,.19804249E-3,.2662E-4,0
YAOGAN-30 06C,2019-045C,2026-05-26T06:26:34.862784,15.02552761,.00009988,34.9928,103.0905,242.2275,117.8332,0,U,44451,999,37325,.18202453E-3,.2441E-4,0
MERIDIAN 8,2019-046A,2026-05-24T06:58:01.844832,2.00604462,.70694624,63.1160,53.8420,274.8017,14.7796,0,U,44453,999,4986,0,-.11E-6,0
COSMOS 2539,2019-048A,2026-05-25T15:46:44.573376,1.00269998,.00005889,0.0397,111.5197,36.9129,343.5019,0,U,44457,999,2500,0,.8E-6,0
EDRS-C,2019-049A,2026-05-26T06:05:15.321120,1.00270854,.00011005,0.0235,113.3223,313.7118,50.5970,0,U,44475,999,2499,0,-.26E-5,0
INTELSAT 39 (IS-39),2019-049B,2026-05-26T00:34:13.833408,1.00273098,.00004891,0.0209,303.6732,357.3944,13.0436,0,U,44476,999,2490,0,.34E-6,0
AMOS-17,2019-050A,2026-05-26T01:41:38.730624,1.00270269,.00014234,0.0142,334.3766,95.1261,216.5545,0,U,44479,999,2496,0,.11E-5,0
AEHF-5 (USA 292),2019-051A,2026-05-26T02:25:57.550656,1.00272515,.00677182,1.4740,334.5746,1.6754,37.0096,0,U,44481,999,2504,0,-.259E-5,0
BRO-1,2019-054A,2026-05-26T03:35:59.998272,15.80954819,.00094848,44.9967,60.4279,170.0256,190.0837,0,U,44495,999,37624,.76560515E-3,.155734E-2,0
GLOBAL-4,2019-054E,2026-05-25T21:42:41.227776,15.61996154,.00052097,45.0079,4.7572,206.2735,153.7897,0,U,44499,999,37687,.52804681E-3,.47149E-3,0
NAVSTAR 78 (USA 293),2019-056A,2026-05-25T22:50:32.328384,2.00569645,.0060869,55.6475,332.0254,197.3260,334.5785,0,U,44506,999,4962,0,-.88E-6,0
COSMOS 2540,2019-057A,2026-05-26T07:35:53.918592,13.85943541,.00148979,99.2056,158.2457,226.9796,133.0112,0,U,44517,999,34084,.8873824E-4,.58E-6,0
KX-09,2019-058B,2026-05-26T06:08:55.147776,14.96604091,.00119839,97.7776,159.6802,62.6751,297.5689,0,U,44520,999,36675,.1914323E-3,.2124E-4,0
