AT&T T-16               
1 44333U 19034A   26146.20539554 -.00000113  00000+0  00000+0 0  9990
2 44333   0.0454 105.9649 0000571 136.3819 334.5188  1.00269300 25415
EUTELSAT 7C             
1 44334U 19034B   26146.15550517  .00000050  00000+0  00000+0 0  9996
2 44334   0.0752 176.5863 0003320 227.9996 262.1353  1.00272545  6613
BEIDOU-3 IGSO-2         
1 44337U 19035A   26139.63539042 -.00000079  00000+0  00000+0 0  9997
2 44337  55.2397 159.1126 0039530 216.4700 210.4277  1.00275192 25387
PROX-1                  
1 44339U 19036A   26145.56044429  .00013022  00000+0  12883-2 0  9995
2 44339  23.9950 265.3322 0006518 125.4682 234.6426 14.89995350370093
NPSAT1                  
1 44340U 19036B   26146.25783811  .00005969  00000+0  84469-3 0  9990
2 44340  24.0005   0.5576 0007677 323.9434  36.0544 14.74342585369256
OTB                     
1 44341U 19036C   26146.20467136  .00001305  00000+0  23625-3 0  9992
2 44341  23.9956 119.5732 0011218 122.6988 237.4587 14.57164106368164
FORMOSAT 7-3            
1 44343U 19036E   26145.91067053  .00004590  00000+0  25721-3 0  9993
2 44343  24.0004 331.8407 0001028  37.0814 322.9761 15.09606195379876
DSX                     
1 44344U 19036F   26145.09096731 -.00000057  00000+0  00000+0 0  9992
2 44344  42.3288 359.1230 1967588   5.9564 356.1242  4.54375144114741
FORMOSAT 7-1            
1 44349U 19036L   26146.17596852  .00002330  00000+0  17472-3 0  9996
2 44349  23.9963 180.7763 0000388 281.2541  78.7916 14.96398402381356
FORMOSAT 7-4            
1 44350U 19036M   26145.39818704  .00002305  00000+0  17254-3 0  9994
2 44350  23.9978 248.1263 0000746 291.5263  68.5158 14.96391735380650
FORMOSAT 7-2            
1 44351U 19036N   26146.08738647  .00002494  00000+0  18885-3 0  9999
2 44351  23.9991 297.7950 0000364 320.3637  39.6837 14.96393141380275
FORMOSAT 7-6            
1 44353U 19036Q   26146.22060934  .00002501  00000+0  18942-3 0  9997
2 44353  23.9968 117.7082 0001080 186.7809 173.2677 14.96400092378525
FORMOSAT 7-5            
1 44358U 19036V   26146.06459141  .00002373  00000+0  17837-3 0  9995
2 44358  23.9992  57.5104 0000115 280.8931  79.1556 14.96400263379030
METEOR-M2 2             
1 44387U 19038A   26146.25757625  .00000080  00000+0  54426-4 0  9997
2 44387  98.9140 133.2209 0002403  82.2737 277.8714 14.24358938358174
ICEYE-X4                
1 44390U 19038D   26146.34015182  .00013538  00000+0  48606-3 0  9990
2 44390  97.8780 177.9750 0013780  29.0373 331.1629 15.28722257378464
MOMENTUS-X1             
1 44408U 19038Y   26146.06258614  .00045824  00000+0  47385-3 0  9994
2 44408  97.6777 189.4549 0009710  99.3077 260.9280 15.64562981383094
COSMOS 2538             
1 44424U 19039D   26146.25924834  .00006946  00000+0  31360-3 0  9996
2 44424  97.5881 225.5074 0043810 120.3200 240.2379 15.20434165376573
YAOGAN-30 06A           
1 44449U 19045A   26146.24771359  .00002263  00000+0  16905-3 0  9997
2 44449  34.9926 103.8018 0002649  87.7951 272.3060 15.02524184373318
YAOGAN-30 06B           
1 44450U 19045B   26146.29189975  .00002662  00000+0  19804-3 0  9995
2 44450  34.9917 103.0682 0009418 244.8405 115.1326 15.02566889373362
YAOGAN-30 06C           
1 44451U 19045C   26146.26845906  .00002441  00000+0  18202-3 0  9992
2 44451  34.9928 103.0905 0000998 242.2275 117.8332 15.02552761373252
MERIDIAN 8              
1 44453U 19046A   26144.29029913 -.00000011  00000+0  00000+0 0  9993
2 44453  63.1160  53.8420 7069462 274.8017  14.7796  2.00604462 49869
COSMOS 2539             
1 44457U 19048A   26145.65746034  .00000080  00000+0  00000+0 0  9995
2 44457   0.0397 111.5197 0000588  36.9129 343.5019  1.00269998 25007
EDRS-C                  
1 44475U 19049A   26146.25364955 -.00000260  00000+0  00000+0 0  9992
2 44475   0.0235 113.3223 0001100 313.7118  50.5970  1.00270854 24994
INTELSAT 39 (IS-39)     
1 44476U 19049B   26146.02377122  .00000034  00000+0  00000+0 0  9996
2 44476   0.0209 303.6732 0000489 357.3944  13.0436  1.00273098 24900
AMOS-17                 
1 44479U 19050A   26146.07058716  .00000110  00000+0  00000+0 0  9996
2 44479   0.0142 334.3766 0001423  95.1261 216.5545  1.00270269 24969
AEHF-5 (USA 292)        
1 44481U 19051A   26146.10136054 -.00000259  00000+0  00000+0 0  9991
2 44481   1.4740 334.5746 0067718   1.6754  37.0096  1.00272515 25042
BRO-1                   
1 44495U 19054A   26146.14999998  .00155734  00000+0  76561-3 0  9994
2 44495  44.9967  60.4279 0009484 170.0256 190.0837 15.80954819376241
GLOBAL-4                
1 44499U 19054E   26145.90464384  .00047149  00000+0  52805-3 0  9992
2 44499  45.0079   4.7572 0005209 206.2735 153.7897 15.61996154376871
NAVSTAR 78 (USA 293)    
1 44506U 19056A   26145.95176306 -.00000088  00000+0  00000+0 0  9990
2 44506  55.6475 332.0254 0060869 197.3260 334.5785  2.00569645 49622
COSMOS 2540             
1 44517U 19057A   26146.31659628  .00000058  00000+0  88738-4 0  9992
2 44517  99.2056 158.2457 0014897 226.9796 133.0112 13.85943541340849
KX-09                   
1 44520U 19058B   26146.25619384  .00002124  00000+0  19143-3 0  9994
2 44520  97.7776 159.6802 0011983  62.6751 297.5689 14.96604091366753
